HULIANWANG DIGUI-151    
1 67527U 26013F   26021.15608316 -.00000614  00000+0 -32354-3 0  9992
2 67527  50.0035 177.7600 0009841 238.6748 121.3191 13.98327198   267
HULIANWANG DIGUI-152    
1 67528U 26013G   26021.72796603 -.00000136  00000+0  91180-5 0  9995
2 67528  49.9990 175.4472 0009907 256.3608 103.6191 13.97887108   345
HULIANWANG DIGUI-153    
1 67529U 26013H   26021.44172990 -.00000104  00000+0  31747-4 0  9999
2 67529  50.0011 176.6007 0008855 242.1618 117.8388 13.98470310   298
HULIANWANG DIGUI-154    
1 67530U 26013J   26021.22721932 -.00000008  00000+0  98151-4 0  9998
2 67530  50.0045 177.4718 0008317 246.2151 113.7880 13.98568419   262
CZ-12 R/B               
1 67531U 26013K   26022.47806450  .00000052  00000+0  10556-3 0  9996
2 67531  49.9896 172.1326 0069029 138.8130 221.8016 14.14450533   449
